[
    {
        "CCSDS_OMM_VERS": "3.0",
        "COMMENT": "GENERATED VIA SPACE-TRACK.ORG API",
        "CREATION_DATE": "2025-04-14T03:05:54",
        "ORIGINATOR": "18 SPCS",
        "OBJECT_NAME": "BEIDOU 8",
        "OBJECT_ID": "2011-013A",
        "CENTER_NAME": "EARTH",
        "REF_FRAME": "TEME",
        "TIME_SYSTEM": "UTC",
        "MEAN_ELEMENT_THEORY": "SGP4",
        "EPOCH": "2025-04-13T18:29:30.457824",
        "MEAN_MOTION": "1.00282963",
        "ECCENTRICITY": "0.00300290",
        "INCLINATION": "61.7999",
        "RA_OF_ASC_NODE": "44.2228",
        "ARG_OF_PERICENTER": "182.0392",
        "MEAN_ANOMALY": "1.6346",
        "EPHEMERIS_TYPE": "0",
        "CLASSIFICATION_TYPE": "U",
        "NORAD_CAT_ID": "37384",
        "ELEMENT_SET_NO": "999",
        "REV_AT_EPOCH": "5135",
        "BSTAR": "0.00000000000000",
        "MEAN_MOTION_DOT": "-0.00000194",
        "MEAN_MOTION_DDOT": "0.0000000000000",
        "SEMIMAJOR_AXIS": "42161.599",
        "PERIOD": "1435.937",
        "APOAPSIS": "35910.071",
        "PERIAPSIS": "35656.857",
        "OBJECT_TYPE": "PAYLOAD",
        "RCS_SIZE": "LARGE",
        "COUNTRY_CODE": "PRC",
        "LAUNCH_DATE": "2011-04-09",
        "SITE": "XSC",
        "DECAY_DATE": null,
        "FILE": "4701263",
        "GP_ID": "285535072",
        "TLE_LINE0": "0 BEIDOU 8",
        "TLE_LINE1": "1 37384U 11013A   25103.77049141 -.00000194  00000-0  00000-0 0  9990",
        "TLE_LINE2": "2 37384  61.7999  44.2228 0030029 182.0392   1.6346  1.00282963 51354"
    }
]